{
  "type": "FeatureCollection",
  "features": [
    {
      "type": "Feature",
      "properties": {
        "norad_id": 34492,
        "name": "IRIDIUM 33 DEB",
        "group": "iridium-33-debris",
        "lat": -35.656447550013105,
        "lon": 153.25560897752965,
        "alt_km": 677.8947199931472,
        "timestamp": "2025-12-22T09:53:37.785577+00:00",
        "meta_object_name": "IRIDIUM 33 DEB",
        "meta_object_id": "1997-051GH",
        "meta_epoch": "2025-12-21T16:53:32.785152",
        "meta_mean_motion": 14.25874095,
        "meta_eccentricity": 0.0188684,
        "meta_inclination": 86.4714,
        "meta_ra_of_asc_node": 331.0047,
        "meta_arg_of_pericenter": 209.0267,
        "meta_mean_anomaly": 332.2714,
        "meta_ephemeris_type": 0,
        "meta_classification_type": "U",
        "meta_norad_cat_id": 34492,
        "meta_element_set_no": 999,
        "meta_rev_at_epoch": 85186,
        "meta_bstar": 0.002243,
        "meta_mean_motion_dot": 6.457e-05,
        "meta_mean_motion_ddot": 0,
        "tle_line1": "1 34492U 97051GH  25355.70385168  .00006457  00000+0  22430-2 0  9996",
        "tle_line2": "2 34492  86.4714 331.0047 0188684 209.0267 332.2714 14.25874095851868"
      },
      "geometry": {
        "type": "Point",
        "coordinates": [
          153.25560897752965,
          -35.656447550013105
        ]
      }
    },
    {
      "type": "Feature",
      "properties": {
        "norad_id": 34497,
        "name": "IRIDIUM 33 DEB",
        "group": "iridium-33-debris",
        "lat": 29.095259625329106,
        "lon": -133.80690827720463,
        "alt_km": 850.4543205535447,
        "timestamp": "2025-12-22T09:53:37.785587+00:00",
        "meta_object_name": "IRIDIUM 33 DEB",
        "meta_object_id": "1997-051GN",
        "meta_epoch": "2025-12-21T03:02:18.965760",
        "meta_mean_motion": 14.27475874,
        "meta_eccentricity": 0.00780469,
        "meta_inclination": 86.2771,
        "meta_ra_of_asc_node": 48.8187,
        "meta_arg_of_pericenter": 312.1215,
        "meta_mean_anomaly": 76.3389,
        "meta_ephemeris_type": 0,
        "meta_classification_type": "U",
        "meta_norad_cat_id": 34497,
        "meta_element_set_no": 999,
        "meta_rev_at_epoch": 87003,
        "meta_bstar": 0.00042941712,
        "meta_mean_motion_dot": 1.107e-05,
        "meta_mean_motion_ddot": 0,
        "tle_line1": "1 34497U 97051GN  25355.12660840  .00001107  00000+0  42942-3 0  9998",
        "tle_line2": "2 34497  86.2771  48.8187 0078046 312.1215  76.3389 14.27475874870039"
      },
      "geometry": {
        "type": "Point",
        "coordinates": [
          -133.80690827720463,
          29.095259625329106
        ]
      }
    },
    {
      "type": "Feature",
      "properties": {
        "norad_id": 34508,
        "name": "IRIDIUM 33 DEB",
        "group": "iridium-33-debris",
        "lat": -28.73601166539724,
        "lon": 96.54888647486908,
        "alt_km": 816.3464908436481,
        "timestamp": "2025-12-22T09:53:37.785597+00:00",
        "meta_object_name": "IRIDIUM 33 DEB",
        "meta_object_id": "1997-051GZ",
        "meta_epoch": "2025-12-21T00:38:21.315840",
        "meta_mean_motion": 14.38484044,
        "meta_eccentricity": 0.00666098,
        "meta_inclination": 86.371,
        "meta_ra_of_asc_node": 99.1304,
        "meta_arg_of_pericenter": 146.3518,
        "meta_mean_anomaly": 214.1938,
        "meta_ephemeris_type": 0,
        "meta_classification_type": "U",
        "meta_norad_cat_id": 34508,
        "meta_element_set_no": 999,
        "meta_rev_at_epoch": 87428,
        "meta_bstar": 0.00080829336,
        "meta_mean_motion_dot": 2.552e-05,
        "meta_mean_motion_ddot": 0,
        "tle_line1": "1 34508U 97051GZ  25355.02663560  .00002552  00000+0  80829-3 0  9993",
        "tle_line2": "2 34508  86.3710  99.1304 0066609 146.3518 214.1938 14.38484044874285"
      },
      "geometry": {
        "type": "Point",
        "coordinates": [
          96.54888647486908,
          -28.73601166539724
        ]
      }
    },
    {
      "type": "Feature",
      "properties": {
        "norad_id": 34521,
        "name": "IRIDIUM 33 DEB",
        "group": "iridium-33-debris",
        "lat": -63.356811348587485,
        "lon": 19.03715746109819,
        "alt_km": 690.3671590589929,
        "timestamp": "2025-12-22T09:53:37.785606+00:00",
        "meta_object_name": "IRIDIUM 33 DEB",
        "meta_object_id": "1997-051HN",
        "meta_epoch": "2025-12-22T01:58:44.099040",
        "meta_mean_motion": 14.6343915,
        "meta_eccentricity": 0.0002691,
        "meta_inclination": 86.3786,
        "meta_ra_of_asc_node": 26.4343,
        "meta_arg_of_pericenter": 176.1617,
        "meta_mean_anomaly": 183.9616,
        "meta_ephemeris_type": 0,
        "meta_classification_type": "U",
        "meta_norad_cat_id": 34521,
        "meta_element_set_no": 999,
        "meta_rev_at_epoch": 88609,
        "meta_bstar": 0.00078903,
        "meta_mean_motion_dot": 4.104e-05,
        "meta_mean_motion_ddot": 0,
        "tle_line1": "1 34521U 97051HN  25356.08245485  .00004104  00000+0  78903-3 0  9992",
        "tle_line2": "2 34521  86.3786  26.4343 0002691 176.1617 183.9616 14.63439150886095"
      },
      "geometry": {
        "type": "Point",
        "coordinates": [
          19.03715746109819,
          -63.356811348587485
        ]
      }
    },
    {
      "type": "Feature",
      "properties": {
        "norad_id": 34525,
        "name": "IRIDIUM 33 DEB",
        "group": "iridium-33-debris",
        "lat": 56.62987183095869,
        "lon": -142.81314094428134,
        "alt_km": 740.6008228504843,
        "timestamp": "2025-12-22T09:53:37.785617+00:00",
        "meta_object_name": "IRIDIUM 33 DEB",
        "meta_object_id": "1997-051HS",
        "meta_epoch": "2025-12-22T02:55:46.288992",
        "meta_mean_motion": 14.42926723,
        "meta_eccentricity": 0.0006395,
        "meta_inclination": 86.3719,
        "meta_ra_of_asc_node": 42.8388,
        "meta_arg_of_pericenter": 73.6651,
        "meta_mean_anomaly": 343.0258,
        "meta_ephemeris_type": 0,
        "meta_classification_type": "U",
        "meta_norad_cat_id": 34525,
        "meta_element_set_no": 999,
        "meta_rev_at_epoch": 88223,
        "meta_bstar": 0.00030724,
        "meta_mean_motion_dot": 1.047e-05,
        "meta_mean_motion_ddot": 0,
        "tle_line1": "1 34525U 97051HS  25356.12206353  .00001047  00000+0  30724-3 0  9994",
        "tle_line2": "2 34525  86.3719  42.8388 0006395  73.6651 343.0258 14.42926723882237"
      },
      "geometry": {
        "type": "Point",
        "coordinates": [
          -142.81314094428134,
          56.62987183095869
        ]
      }
    },
    {
      "type": "Feature",
      "properties": {
        "norad_id": 34529,
        "name": "IRIDIUM 33 DEB",
        "group": "iridium-33-debris",
        "lat": -61.81855046659576,
        "lon": 24.471211503824033,
        "alt_km": 767.2754378646296,
        "timestamp": "2025-12-22T09:53:37.785626+00:00",
        "meta_object_name": "IRIDIUM 33 DEB",
        "meta_object_id": "1997-051HW",
        "meta_epoch": "2025-12-21T09:10:35.665536",
        "meta_mean_motion": 14.4062226,
        "meta_eccentricity": 0.00057974,
        "meta_inclination": 86.3634,
        "meta_ra_of_asc_node": 31.7273,
        "meta_arg_of_pericenter": 151.7059,
        "meta_mean_anomaly": 208.4457,
        "meta_ephemeris_type": 0,
        "meta_classification_type": "U",
        "meta_norad_cat_id": 34529,
        "meta_element_set_no": 999,
        "meta_rev_at_epoch": 88266,
        "meta_bstar": 9.6722833e-05,
        "meta_mean_motion_dot": 3.28e-06,
        "meta_mean_motion_ddot": 0,
        "tle_line1": "1 34529U 97051HW  25355.38235724  .00000328  00000+0  96723-4 0  9992",
        "tle_line2": "2 34529  86.3634  31.7273 0005797 151.7059 208.4457 14.40622260882661"
      },
      "geometry": {
        "type": "Point",
        "coordinates": [
          24.471211503824033,
          -61.81855046659576
        ]
      }
    },
    {
      "type": "Feature",
      "properties": {
        "norad_id": 34538,
        "name": "IRIDIUM 33 DEB",
        "group": "iridium-33-debris",
        "lat": -26.288134783771635,
        "lon": -176.8373984195149,
        "alt_km": 754.6793910990064,
        "timestamp": "2025-12-22T09:53:37.785636+00:00",
        "meta_object_name": "IRIDIUM 33 DEB",
        "meta_object_id": "1997-051JF",
        "meta_epoch": "2025-12-21T12:00:19.123776",
        "meta_mean_motion": 14.42695029,
        "meta_eccentricity": 0.00320877,
        "meta_inclination": 86.2759,
        "meta_ra_of_asc_node": 1.7183,
        "meta_arg_of_pericenter": 297.7157,
        "meta_mean_anomaly": 215.1252,
        "meta_ephemeris_type": 0,
        "meta_classification_type": "U",
        "meta_norad_cat_id": 34538,
        "meta_element_set_no": 999,
        "meta_rev_at_epoch": 87882,
        "meta_bstar": 0.00071835416,
        "meta_mean_motion_dot": 2.423e-05,
        "meta_mean_motion_ddot": 0,
        "tle_line1": "1 34538U 97051JF  25355.50022134  .00002423  00000+0  71835-3 0  9999",
        "tle_line2": "2 34538  86.2759   1.7183 0032087 297.7157 215.1252 14.42695029878823"
      },
      "geometry": {
        "type": "Point",
        "coordinates": [
          -176.8373984195149,
          -26.288134783771635
        ]
      }
    }
  ]
}